[{"OBJECT_NAME":"STARLINK-6230","OBJECT_ID":"2023-094L","EPOCH":"2026-03-09T22:00:01.999584","MEAN_MOTION":15.16843602,"ECCENTRICITY":0.00012019,"INCLINATION":43.0002,"RA_OF_ASC_NODE":28.5737,"ARG_OF_PERICENTER":233.9151,"MEAN_ANOMALY":2.3003,"EPHEMERIS_TYPE":0,"CLASSIFICATION_TYPE":"U","NORAD_CAT_ID":57228,"ELEMENT_SET_NO":999,"REV_AT_EPOCH":573,"BSTAR":0.055580551,"MEAN_MOTION_DOT":0.01216881,"MEAN_MOTION_DDOT":0},{"OBJECT_NAME":"COSMOS 2251 DEB","OBJECT_ID":"1993-036BXP","EPOCH":"2026-03-04T07:23:49.847712","MEAN_MOTION":15.24789556,"ECCENTRICITY":0.00190834,"INCLINATION":73.9759,"RA_OF_ASC_NODE":64.3004,"ARG_OF_PERICENTER":239.4537,"MEAN_ANOMALY":120.4779,"EPHEMERIS_TYPE":0,"CLASSIFICATION_TYPE":"U","NORAD_CAT_ID":47059,"ELEMENT_SET_NO":999,"REV_AT_EPOCH":9543,"BSTAR":0.0048704033,"MEAN_MOTION_DOT":0.00123422,"MEAN_MOTION_DDOT":0}]
